NORAD_CAT_ID,OBJECT_NAME,OBJECT_TYPE,EPOCH,MEAN_MOTION,ECCENTRICITY,INCLINATION,RA_OF_ASC_NODE,ARG_OF_PERICENTER,MEAN_ANOMALY,BSTAR,MEAN_MOTION_DOT,MEAN_MOTION_DDOT,TLE_LINE0,TLE_LINE1,TLE_LINE2,SEMIMAJOR_AXIS,PERIOD,APOGEE,PERIGEE,DECAYED
52561.0,STARLINK-3955,PAYLOAD,2022-08-11 06:00:02,15.0885758,0.0002383,53.2159,238.9686,40.7146,353.1955,-0.0017791,-0.00028506,0.0,0 STARLINK-3955,1 52561U 22051AE  22223.25002315 -.00028506  00000-0 -17791-2 0  9998,2 52561  53.2159 238.9686 0002383  40.7146 353.1955 15.08857580 14212,6917.8269999999975,95.436,541.34,538.043,0.0
52561.0,STARLINK-3955,PAYLOAD,2022-08-11 14:00:01,15.08846015,0.0002476,53.2158,237.4725,37.7717,7.6759,0.00032254,4.85e-05,0.0,0 STARLINK-3955,1 52561U 22051AE  22223.58334491  .00004850  00000-0  32254-3 0  9993,2 52561  53.2158 237.4725 0002476  37.7717   7.6759 15.08846015  1302,6917.861999999999,95.437,541.44,538.014,0.0
52561.0,STARLINK-3955,PAYLOAD,2022-08-11 22:00:00,15.08830291,0.0002288,53.2161,235.9743,41.7818,15.2781,0.0020383,0.00032293,0.0,0 STARLINK-3955,1 52561U 22051AE  22223.91667824  .00032293  00000-0  20383-2 0  9990,2 52561  53.2161 235.9743 0002288  41.7818  15.2781 15.08830291 14311,6917.91,95.438,541.3580000000002,538.192,0.0
52561.0,STARLINK-3955,PAYLOAD,2022-08-12 14:00:01,15.08834949,0.0002501999999999,53.2162,232.983,37.4255,42.8251,-9.5489e-06,-4.4e-06,0.0,0 STARLINK-3955,1 52561U 22051AE  22224.58334491 -.00000440  00000-0 -95489-5 0  9998,2 52561  53.2162 232.9830 0002502  37.4255  42.8251 15.08834949 14415,6917.896,95.438,541.492,538.03,0.0
52561.0,STARLINK-3955,PAYLOAD,2022-08-12 22:00:01,15.08813156,0.0002323,53.2167,231.4848,41.97,49.9381,0.0027993,0.00044513,0.0,0 STARLINK-3955,1 52561U 22051AE  22224.91668981  .00044513  00000-0  27993-2 0  9998,2 52561  53.2167 231.4848 0002323  41.9700  49.9381 15.08813156  1302,6917.962,95.439,541.434,538.22,0.0
52561.0,STARLINK-3955,PAYLOAD,2022-08-13 14:00:01,15.08847292,0.0002563,53.2168,228.4935,39.2756,75.7403,-0.00059452,-9.74e-05,0.0,0 STARLINK-3955,1 52561U 22051AE  22225.58334491 -.00009740  00000-0 -59452-3 0  9999,2 52561  53.2168 228.4935 0002563  39.2756  75.7403 15.08847292  1303,6917.858,95.437,541.496,537.95,0.0
52561.0,STARLINK-3955,PAYLOAD,2022-08-13 22:00:00,15.08829924,0.0002359,53.2172,226.9956,43.3229,83.29700000000003,0.001451,0.00022874,0.0,0 STARLINK-3955,1 52561U 22051AE  22225.91667824  .00022874  00000-0  14510-2 0  9991,2 52561  53.2172 226.9956 0002359  43.3229  83.2970 15.08829924  1303,6917.911,95.438,541.408,538.144,0.0
52561.0,STARLINK-3955,PAYLOAD,2022-08-14 14:00:01,15.08833295,0.0002499,53.2172,224.0042,39.25,110.5435,-0.0010358,-0.00016733,0.0,0 STARLINK-3955,1 52561U 22051AE  22226.58334491 -.00016733  00000-0 -10358-2 0  9991,2 52561  53.2172 224.0042 0002499  39.2500 110.5435 15.08833295  1305,6917.901,95.438,541.495,538.0369999999998,0.0
52561.0,STARLINK-3955,PAYLOAD,2022-08-14 22:00:00,15.08809984,0.0002313,53.2175,222.5065,43.9746,117.4023,0.0022787,0.00036135,0.0,0 STARLINK-3955,1 52561U 22051AE  22226.91667824  .00036135  00000-0  22787-2 0  9992,2 52561  53.2175 222.5065 0002313  43.9746 117.4023 15.08809984  1302,6917.972,95.439,541.437,538.237,0.0
52561.0,STARLINK-3955,PAYLOAD,2022-08-15 14:00:01,15.08843909,0.0002501,53.2172,219.5152,41.6653,142.8626,-0.0015107,-0.00024255,0.0,0 STARLINK-3955,1 52561U 22051AE  22227.58334491 -.00024255  00000-0 -15107-2 0  9997,2 52561  53.2172 219.5152 0002501  41.6653 142.8626 15.08843909  1309,6917.868,95.437,541.464,538.003,0.0
52561.0,STARLINK-3955,PAYLOAD,2022-08-15 16:00:00,15.08845809,0.0002435,53.2174,219.1407,42.8255,234.5994,-0.0020613,-0.00032951,0.0,0 STARLINK-3955,1 52561U 22051AE  22227.66667824 -.00032951  00000-0 -20613-2 0  9995,2 52561  53.2174 219.1407 0002435  42.8255 234.5994 15.08845809 14882,6917.863,95.437,541.4119999999998,538.043,0.0
52561.0,STARLINK-3955,PAYLOAD,2022-08-15 22:00:00,15.08819923,0.0002348,53.2174,218.0177,46.5218,149.5976,0.0019878,0.00031473,0.0,0 STARLINK-3955,1 52561U 22051AE  22227.91667824  .00031473  00000-0  19878-2 0  9990,2 52561  53.2174 218.0177 0002348  46.5218 149.5976 15.08819923  1303,6917.941999999999,95.439,541.431,538.182,0.0
52561.0,STARLINK-3955,PAYLOAD,2022-08-16 06:00:02,15.08837708,0.0002541,53.2173,216.5231,44.1043,163.6655,-0.0006347,-0.00010375,0.0,0 STARLINK-3955,1 52561U 22051AE  22228.25002315 -.00010375  00000-0 -63470-3 0  9994,2 52561  53.2173 216.5231 0002541  44.1043 163.6655 15.08837708 14970,6917.887,95.438,541.51,537.995,0.0
52561.0,STARLINK-3955,PAYLOAD,2022-08-16 14:00:01,15.08854346,0.0002526999999999,53.217,215.0263,44.0174,175.2733,-0.0018529,-0.00029669,0.0,0 STARLINK-3955,1 52561U 22051AE  22228.58334491 -.00029669  00000-0 -18529-2 0  9993,2 52561  53.2170 215.0263 0002527  44.0174 175.2733 15.08854346  1300,6917.837,95.437,541.45,537.953,0.0
52561.0,STARLINK-3955,PAYLOAD,2022-08-16 22:00:00,15.08831599,0.0002418,53.2171,213.5289,48.9975,181.895,0.001905,0.00030154,0.0,0 STARLINK-3955,1 52561U 22051AE  22228.91667824  .00030154  00000-0  19050-2 0  9998,2 52561  53.2171 213.5289 0002418  48.9975 181.8950 15.08831599 15071,6917.906,95.438,541.444,538.0980000000002,0.0
52561.0,STARLINK-3955,PAYLOAD,2022-08-17 14:00:01,15.08864871,0.000258,53.2168,210.5374,45.6542,208.4304,-0.0020739,-0.00033167,0.0,0 STARLINK-3955,1 52561U 22051AE  22229.58334491 -.00033167  00000-0 -20739-2 0  9998,2 52561  53.2168 210.5374 0002580  45.6542 208.4304 15.08864871 15172,6917.804,95.436,541.4540000000002,537.885,0.0
52561.0,STARLINK-3955,PAYLOAD,2022-08-17 16:00:00,15.088578699999998,0.0002537,53.217,210.1628,47.008,299.9817,-0.0014616,-0.00023487,0.0,0 STARLINK-3955,1 52561U 22051AE  22229.66667824 -.00023487  00000-0 -14616-2 0  9997,2 52561  53.2170 210.1628 0002537  47.0080 299.9817 15.08857870  1303,6917.826,95.436,541.446,537.936,0.0
52561.0,STARLINK-3955,PAYLOAD,2022-08-18 08:00:01,15.08820577,0.0002618999999999,53.2173,207.1643,44.773,325.4296,0.00049254,7.555e-05,0.0,0 STARLINK-3955,1 52561U 22051AE  22230.33334491  .00007555  00000-0  49254-3 0  9997,2 52561  53.2173 207.1643 0002619  44.7730 325.4296 15.08820577 15288,6917.94,95.439,541.617,537.993,0.0
52561.0,STARLINK-3955,PAYLOAD,2022-08-18 14:00:01,15.08856328,0.0002577,53.2168,206.0484,45.496,243.365,-0.0019518,-0.00031233,0.0,0 STARLINK-3955,1 52561U 22051AE  22230.58334491 -.00031233  00000-0 -19518-2 0  9995,2 52561  53.2168 206.0484 0002577  45.4960 243.3650 15.08856328  1302,6917.83,95.437,541.4780000000002,537.913,0.0
52561.0,STARLINK-3955,PAYLOAD,2022-08-18 22:00:00,15.08838061,0.0002518,53.217,204.551,50.3893,250.073,0.0019774999999999,0.00031323,0.0,0 STARLINK-3955,1 52561U 22051AE  22230.91667824  .00031323  00000-0  19775-2 0  9994,2 52561  53.2170 204.5510 0002518  50.3893 250.0730 15.08838061  1301,6917.886,95.438,541.493,538.009,0.0
52561.0,STARLINK-3955,PAYLOAD,2022-08-19 14:00:01,15.08854473,0.0002582,53.217,201.5593,45.7771,277.8968,-0.0022713,-0.00036271,0.0,0 STARLINK-3955,1 52561U 22051AE  22231.58334491 -.00036271  00000-0 -22713-2 0  9994,2 52561  53.2170 201.5593 0002582  45.7771 277.8968 15.08854473  1308,6917.8359999999975,95.437,541.487,537.915,0.0
52561.0,STARLINK-3955,PAYLOAD,2022-08-19 16:00:00,15.08832607,0.0002528,53.2172,201.1847,47.3081,9.2698,-4.5014e-05,-1.005e-05,0.0,0 STARLINK-3955,1 52561U 22051AE  22231.66667824 -.00001005  00000-0 -45014-4 0  9990,2 52561  53.2172 201.1847 0002528  47.3081   9.2698 15.08832607 15486,6917.903,95.438,541.5169999999998,538.019,0.0
52561.0,STARLINK-3955,PAYLOAD,2022-08-19 22:00:00,15.08834109,0.0002511,53.2174,200.0621,50.0322,285.233,0.0014533,0.00022914,0.0,0 STARLINK-3955,1 52561U 22051AE  22231.91667824  .00022914  00000-0  14533-2 0  9998,2 52561  53.2174 200.0621 0002511  50.0322 285.2330 15.08834109  1301,6917.898,95.438,541.5,538.026,0.0
52561.0,STARLINK-3955,PAYLOAD,2022-08-20 14:00:01,15.08839907,0.0002566999999999,53.2173,197.0703,46.1584,312.2873,-0.0017419,-0.00027905,0.0,0 STARLINK-3955,1 52561U 22051AE  22232.58334491 -.00027905  00000-0 -17419-2 0  9996,2 52561  53.2173 197.0703 0002567  46.1584 312.2873 15.08839907  1307,6917.880999999999,95.438,541.521,537.97,0.0
52561.0,STARLINK-3955,PAYLOAD,2022-08-20 22:00:00,15.08827873,0.0002504,53.2176,195.5733,50.3744,319.6481,0.0011799,0.00018534,0.0,0 STARLINK-3955,1 52561U 22051AE  22232.91667824  .00018534  00000-0  11799-2 0  9993,2 52561  53.2176 195.5733 0002504  50.3744 319.6481 15.08827873  1307,6917.917,95.438,541.515,538.05,0.0
52561.0,STARLINK-3955,PAYLOAD,2022-08-21 14:00:01,15.08851877,0.0002601,53.2174,192.5812,48.6642,344.5304,-0.0015984,-0.00025647,0.0,0 STARLINK-3955,1 52561U 22051AE  22233.58334491 -.00025647  00000-0 -15984-2 0  9993,2 52561  53.2174 192.5812 0002601  48.6642 344.5304 15.08851877  1307,6917.844,95.437,541.508,537.91,0.0
52561.0,STARLINK-3955,PAYLOAD,2022-08-21 22:00:00,15.08847127,0.0002542,53.2177,191.0845,52.3517,352.4366,0.00064298,9.962e-05,0.0,0 STARLINK-3955,1 52561U 22051AE  22233.91667824  .00009962  00000-0  64298-3 0  9992,2 52561  53.2177 191.0845 0002542  52.3517 352.4366 15.08847127 15828,6917.859,95.437,541.482,537.965,0.0
52561.0,STARLINK-3955,PAYLOAD,2022-08-22 12:00:00,15.08869885,0.0002627,53.2172,188.4667,48.7966,286.2973,-0.0033773,-0.00053685,0.0,0 STARLINK-3955,1 52561U 22051AE  22234.50001157 -.00053685  00000-0 -33773-2 0  9995,2 52561  53.2172 188.4667 0002627  48.7966 286.2973 15.08869885  1307,6917.7890000000025,95.436,541.471,537.837,0.0
52561.0,STARLINK-3955,PAYLOAD,2022-08-22 22:00:00,15.08855907,0.0002497,53.2175,186.5956,53.3655,26.2299,-0.00095222,-0.00015418,0.0,0 STARLINK-3955,1 52561U 22051AE  22234.91667824 -.00015418  00000-0 -95222-3 0  9999,2 52561  53.2175 186.5956 0002497  53.3655  26.2299 15.08855907 15973,6917.831999999999,95.437,541.424,537.969,0.0
